ONEWEB-0063             
1 45448U 20020AA  23270.40707011 -.00004986  00000+0 -14119-1 0  9998
2 45448  87.8967 218.4647 0001380  86.8034 273.3251 13.11376508172441
ONEWEB-0019             
1 45449U 20020AB  23270.38163742 -.00004762  00000+0 -13487-1 0  9992
2 45449  87.8962 218.4694 0001445  99.2206 260.9085 13.11376790172282
ONEWEB-0094             
1 45450U 20020AC  23270.52789704 -.00000043  00000+0 -14457-3 0  9990
2 45450  87.9188 203.3475 0002040  77.2056 282.9303 13.17651310175455
ONEWEB-0087             
1 45451U 20020AD  23270.41546990  .00004857  00000+0  13654-1 0  9998
2 45451  87.8963 218.4529 0002985  74.3002 285.8455 13.11454436172338
ONEWEB-0082             
1 45452U 20020AE  23270.41758610  .00005106  00000+0  14354-1 0  9999
2 45452  87.8969 218.4381 0002078  80.1158 280.0204 13.11456551172420
ONEWEB-0050             
1 45453U 20020AF  23270.55175528  .00003571  00000+0  29017-3 0  9994
2 45453  87.9956  95.5261 0022656 307.0094  52.9066 14.99139335192242
ONEWEB-0034             
1 45454U 20020AG  23270.36039757 -.00000208  00000+0 -62226-3 0  9992
2 45454  87.8968 218.4679 0002073  79.6626 280.4736 13.11420164172334
ONEWEB-0060             
1 45455U 20020AH  23270.29153461  .00000079  00000+0  18734-3 0  9993
2 45455  87.8963 218.4819 0002086  80.9692 279.1672 13.11419733172286
